{"type": "FeatureCollection", "features": [{"type": "Feature", "properties": {"norad_id": 26766, "name": "INTELSAT 10 (IS-10)", "group": "intelsat", "lat": 7.541949548407064, "lon": -179.26948871093418, "alt_km": 36135.144892735974, "timestamp": "2025-12-22T23:36:20.367351+00:00", "meta": {"OBJECT_NAME": "INTELSAT 10 (IS-10)", "OBJECT_ID": "2001-019A", "EPOCH": "2025-12-21T17:53:39.051168", "MEAN_MOTION": 0.99073842, "ECCENTRICITY": 0.00077363, "INCLINATION": 8.6495, "RA_OF_ASC_NODE": 61.0661, "ARG_OF_PERICENTER": 228.4282, "MEAN_ANOMALY": 169.4863, "EPHEMERIS_TYPE": 0, "CLASSIFICATION_TYPE": "U", "NORAD_CAT_ID": 26766, "ELEMENT_SET_NO": 999, "REV_AT_EPOCH": 4382, "BSTAR": 0, "MEAN_MOTION_DOT": -7.1e-07, "MEAN_MOTION_DDOT": 0}, "tle": {"line1": "1 26766U 01019A   25355.74559087 -.00000071  00000+0  00000+0 0  9990", "line2": "2 26766   8.6495  61.0661 0007736 228.4282 169.4863  0.99073842 43828"}}, "geometry": {"type": "Point", "coordinates": [-179.26948871093418, 7.541949548407064]}}, {"type": "Feature", "properties": {"norad_id": 26900, "name": "INTELSAT 902 (IS-902)", "group": "intelsat", "lat": -3.498807081836125, "lon": 35.87077168263907, "alt_km": 35800.3247869739, "timestamp": "2025-12-22T23:36:20.367376+00:00", "meta": {"OBJECT_NAME": "INTELSAT 902 (IS-902)", "OBJECT_ID": "2001-039A", "EPOCH": "2025-12-15T13:09:02.081664", "MEAN_MOTION": 1.0027087, "ECCENTRICITY": 0.00045028, "INCLINATION": 5.6536, "RA_OF_ASC_NODE": 74.0372, "ARG_OF_PERICENTER": 189.6359, "MEAN_ANOMALY": 327.9329, "EPHEMERIS_TYPE": 0, "CLASSIFICATION_TYPE": "U", "NORAD_CAT_ID": 26900, "ELEMENT_SET_NO": 999, "REV_AT_EPOCH": 8885, "BSTAR": 0, "MEAN_MOTION_DOT": -2.65e-06, "MEAN_MOTION_DDOT": 0}, "tle": {"line1": "1 26900U 01039A   25349.54794076 -.00000265  00000+0  00000+0 0  9997", "line2": "2 26900   5.6536  74.0372 0004502 189.6359 327.9329  1.00270870 88858"}}, "geometry": {"type": "Point", "coordinates": [35.87077168263907, -3.498807081836125]}}, {"type": "Feature", "properties": {"norad_id": 27380, "name": "INTELSAT 904 (IS-904)", "group": "intelsat", "lat": -1.872464424545952, "lon": 54.471133056934335, "alt_km": 35787.33119849444, "timestamp": "2025-12-22T23:36:20.367392+00:00", "meta": {"OBJECT_NAME": "INTELSAT 904 (IS-904)", "OBJECT_ID": "2002-007A", "EPOCH": "2025-12-22T04:54:51.714144", "MEAN_MOTION": 1.00270344, "ECCENTRICITY": 0.00019271, "INCLINATION": 6.4767, "RA_OF_ASC_NODE": 71.3235, "ARG_OF_PERICENTER": 249.6, "MEAN_ANOMALY": 172.2947, "EPHEMERIS_TYPE": 0, "CLASSIFICATION_TYPE": "U", "NORAD_CAT_ID": 27380, "ELEMENT_SET_NO": 999, "REV_AT_EPOCH": 4999, "BSTAR": 0, "MEAN_MOTION_DOT": -2.08e-06, "MEAN_MOTION_DDOT": 0}, "tle": {"line1": "1 27380U 02007A   25356.20476521 -.00000208  00000+0  00000+0 0  9996", "line2": "2 27380   6.4767  71.3235 0001927 249.6000 172.2947  1.00270344 49997"}}, "geometry": {"type": "Point", "coordinates": [54.471133056934335, -1.872464424545952]}}, {"type": "Feature", "properties": {"norad_id": 27426, "name": "DIRECTV 5 (TEMPO 1)", "group": "intelsat", "lat": -4.349633952464858, "lon": -24.25827859930126, "alt_km": 35779.40291537849, "timestamp": "2025-12-22T23:36:20.367406+00:00", "meta": {"OBJECT_NAME": "DIRECTV 5 (TEMPO 1)", "OBJECT_ID": "2002-023A", "EPOCH": "2025-12-22T10:50:46.115232", "MEAN_MOTION": 1.00271748, "ECCENTRICITY": 0.00031937, "INCLINATION": 4.4253, "RA_OF_ASC_NODE": 77.5393, "ARG_OF_PERICENTER": 200.6737, "MEAN_ANOMALY": 225.6165, "EPHEMERIS_TYPE": 0, "CLASSIFICATION_TYPE": "U", "NORAD_CAT_ID": 27426, "ELEMENT_SET_NO": 999, "REV_AT_EPOCH": 8635, "BSTAR": 0, "MEAN_MOTION_DOT": -3.8e-07, "MEAN_MOTION_DDOT": 0}, "tle": {"line1": "1 27426U 02023A   25356.45192263 -.00000038  00000+0  00000+0 0  9991", "line2": "2 27426   4.4253  77.5393 0003193 200.6737 225.6165  1.00271748 86355"}}, "geometry": {"type": "Point", "coordinates": [-24.25827859930126, -4.349633952464858]}}, {"type": "Feature", "properties": {"norad_id": 27438, "name": "INTELSAT 905 (IS-905)", "group": "intelsat", "lat": -5.29547135096021, "lon": -51.47762132033176, "alt_km": 35776.570413610585, "timestamp": "2025-12-22T23:36:20.367419+00:00", "meta": {"OBJECT_NAME": "INTELSAT 905 (IS-905)", "OBJECT_ID": "2002-027A", "EPOCH": "2025-12-22T11:32:40.739712", "MEAN_MOTION": 1.00273062, "ECCENTRICITY": 0.00027239, "INCLINATION": 6.3084, "RA_OF_ASC_NODE": 71.9438, "ARG_OF_PERICENTER": 204.9148, "MEAN_ANOMALY": 210.3946, "EPHEMERIS_TYPE": 0, "CLASSIFICATION_TYPE": "U", "NORAD_CAT_ID": 27438, "ELEMENT_SET_NO": 999, "REV_AT_EPOCH": 4959, "BSTAR": 0, "MEAN_MOTION_DOT": 1.12e-06, "MEAN_MOTION_DDOT": 0}, "tle": {"line1": "1 27438U 02027A   25356.48102708  .00000112  00000+0  00000+0 0  9998", "line2": "2 27438   6.3084  71.9438 0002723 204.9148 210.3946  1.00273062 49594"}}, "geometry": {"type": "Point", "coordinates": [-51.47762132033176, -5.29547135096021]}}, {"type": "Feature", "properties": {"norad_id": 27445, "name": "GALAXY 3C (G-3C)", "group": "intelsat", "lat": -3.2973767215594783, "lon": -8.995736054947363, "alt_km": 35791.0894866327, "timestamp": "2025-12-22T23:36:20.367431+00:00", "meta": {"OBJECT_NAME": "GALAXY 3C (G-3C)", "OBJECT_ID": "2002-030A", "EPOCH": "2025-12-22T11:43:11.504640", "MEAN_MOTION": 1.00271668, "ECCENTRICITY": 0.00010961, "INCLINATION": 3.2865, "RA_OF_ASC_NODE": 80.4036, "ARG_OF_PERICENTER": 79.8952, "MEAN_ANOMALY": 11.9345, "EPHEMERIS_TYPE": 0, "CLASSIFICATION_TYPE": "U", "NORAD_CAT_ID": 27445, "ELEMENT_SET_NO": 999, "REV_AT_EPOCH": 4472, "BSTAR": 0, "MEAN_MOTION_DOT": -1.33e-06, "MEAN_MOTION_DDOT": 0}, "tle": {"line1": "1 27445U 02030A   25356.48832760 -.00000133  00000+0  00000+0 0  9992", "line2": "2 27445   3.2865  80.4036 0001096  79.8952  11.9345  1.00271668 44726"}}, "geometry": {"type": "Point", "coordinates": [-8.995736054947363, -3.2973767215594783]}}, {"type": "Feature", "properties": {"norad_id": 27513, "name": "INTELSAT 906 (IS-906)", "group": "intelsat", "lat": 5.186753902187631, "lon": 149.8827655768957, "alt_km": 35800.38655955762, "timestamp": "2025-12-22T23:36:20.367444+00:00", "meta": {"OBJECT_NAME": "INTELSAT 906 (IS-906)", "OBJECT_ID": "2002-041A", "EPOCH": "2025-12-21T20:19:33.988224", "MEAN_MOTION": 1.00273099, "ECCENTRICITY": 0.00063058, "INCLINATION": 5.3527, "RA_OF_ASC_NODE": 75.1232, "ARG_OF_PERICENTER": 200.0655, "MEAN_ANOMALY": 184.499, "EPHEMERIS_TYPE": 0, "CLASSIFICATION_TYPE": "U", "NORAD_CAT_ID": 27513, "ELEMENT_SET_NO": 999, "REV_AT_EPOCH": 8525, "BSTAR": 0, "MEAN_MOTION_DOT": 3.1e-07, "MEAN_MOTION_DDOT": 0}, "tle": {"line1": "1 27513U 02041A   25355.84692116  .00000031  00000+0  00000+0 0  9994", "line2": "2 27513   5.3527  75.1232 0006305 200.0655 184.4990  1.00273099 85250"}}, "geometry": {"type": "Point", "coordinates": [149.8827655768957, 5.186753902187631]}}, {"type": "Feature", "properties": {"norad_id": 27954, "name": "GALAXY 13 (HORIZONS-1)", "group": "intelsat", "lat": -0.4980125313474329, "lon": -64.16016450524211, "alt_km": 35777.61695257722, "timestamp": "2025-12-22T23:36:20.367456+00:00", "meta": {"OBJECT_NAME": "GALAXY 13 (HORIZONS-1)", "OBJECT_ID": "2003-044A", "EPOCH": "2025-12-22T12:31:39.851328", "MEAN_MOTION": 1.00270712, "ECCENTRICITY": 0.00023594, "INCLINATION": 0.9619, "RA_OF_ASC_NODE": 86.3432, "ARG_OF_PERICENTER": 180.8351, "MEAN_ANOMALY": 222.0353, "EPHEMERIS_TYPE": 0, "CLASSIFICATION_TYPE": "U", "NORAD_CAT_ID": 27954, "ELEMENT_SET_NO": 999, "REV_AT_EPOCH": 4480, "BSTAR": 0, "MEAN_MOTION_DOT": 1.54e-06, "MEAN_MOTION_DDOT": 0}, "tle": {"line1": "1 27954U 03044A   25356.52198902  .00000154  00000+0  00000+0 0  9993", "line2": "2 27954   0.9619  86.3432 0002359 180.8351 222.0353  1.00270712 44808"}}, "geometry": {"type": "Point", "coordinates": [-64.16016450524211, -0.4980125313474329]}}, {"type": "Feature", "properties": {"norad_id": 28358, "name": "INTELSAT 10-02", "group": "intelsat", "lat": 0.020451754241135264, "lon": 84.90586210494752, "alt_km": 35789.16627572974, "timestamp": "2025-12-22T23:36:20.367468+00:00", "meta": {"OBJECT_NAME": "INTELSAT 10-02", "OBJECT_ID": "2004-022A", "EPOCH": "2025-12-22T01:10:32.793888", "MEAN_MOTION": 1.00271641, "ECCENTRICITY": 9.947e-05, "INCLINATION": 0.0191, "RA_OF_ASC_NODE": 73.3386, "ARG_OF_PERICENTER": 234.5255, "MEAN_ANOMALY": 159.6716, "EPHEMERIS_TYPE": 0, "CLASSIFICATION_TYPE": "U", "NORAD_CAT_ID": 28358, "ELEMENT_SET_NO": 999, "REV_AT_EPOCH": 7878, "BSTAR": 0, "MEAN_MOTION_DOT": 1.1e-07, "MEAN_MOTION_DDOT": 0}, "tle": {"line1": "1 28358U 04022A   25356.04899067  .00000011  00000+0  00000+0 0  9998", "line2": "2 28358   0.0191  73.3386 0000994 234.5255 159.6716  1.00271641 78784"}}, "geometry": {"type": "Point", "coordinates": [84.90586210494752, 0.020451754241135264]}}, {"type": "Feature", "properties": {"norad_id": 28626, "name": "XM-3 (RHYTHM)", "group": "intelsat", "lat": 0.2002836143412713, "lon": 151.4709267639992, "alt_km": 36168.41462835592, "timestamp": "2025-12-22T23:36:20.367480+00:00", "meta": {"OBJECT_NAME": "XM-3 (RHYTHM)", "OBJECT_ID": "2005-008A", "EPOCH": "2025-12-22T13:29:07.582848", "MEAN_MOTION": 0.98949861, "ECCENTRICITY": 0.00020393, "INCLINATION": 0.1986, "RA_OF_ASC_NODE": 82.0754, "ARG_OF_PERICENTER": 276.7469, "MEAN_ANOMALY": 2.4328, "EPHEMERIS_TYPE": 0, "CLASSIFICATION_TYPE": "U", "NORAD_CAT_ID": 28626, "ELEMENT_SET_NO": 999, "REV_AT_EPOCH": 4084, "BSTAR": 0, "MEAN_MOTION_DOT": 9.5e-07, "MEAN_MOTION_DDOT": 0}, "tle": {"line1": "1 28626U 05008A   25356.56189332  .00000095  00000+0  00000+0 0  9997", "line2": "2 28626   0.1986  82.0754 0002039 276.7469   2.4328  0.98949861 40840"}}, "geometry": {"type": "Point", "coordinates": [151.4709267639992, 0.2002836143412713]}}]}